{
  "type": "FeatureCollection",
  "features": [
    {
      "type": "Feature",
      "properties": {
        "norad_id": 37069,
        "name": "FENGYUN 1C DEB",
        "group": "fengyun-1c-debris",
        "lat": -45.76715337117998,
        "lon": -30.21306212212022,
        "alt_km": 1100.3364904792843,
        "timestamp": "2025-12-24T03:53:29.936432+00:00",
        "meta_object_name": "FENGYUN 1C DEB",
        "meta_object_id": "1999-025EFD",
        "meta_epoch": "2025-12-21T04:20:13.765632",
        "meta_mean_motion": 13.38005069,
        "meta_eccentricity": 0.04234335,
        "meta_inclination": 95.8488,
        "meta_ra_of_asc_node": 322.0189,
        "meta_arg_of_pericenter": 233.7857,
        "meta_mean_anomaly": 122.3437,
        "meta_ephemeris_type": 0,
        "meta_classification_type": "U",
        "meta_norad_cat_id": 37069,
        "meta_element_set_no": 999,
        "meta_rev_at_epoch": 87821,
        "meta_bstar": 0.00093197507,
        "meta_mean_motion_dot": 8.07e-06,
        "meta_mean_motion_ddot": 0,
        "tle_line1": "1 37069U 99025EFD 25355.18071488  .00000807  00000+0  93198-3 0  9994",
        "tle_line2": "2 37069  95.8488 322.0189 0423433 233.7857 122.3437 13.38005069878211"
      },
      "geometry": {
        "type": "Point",
        "coordinates": [
          -30.21306212212022,
          -45.76715337117998
        ]
      }
    },
    {
      "type": "Feature",
      "properties": {
        "norad_id": 37077,
        "name": "FENGYUN 1C DEB",
        "group": "fengyun-1c-debris",
        "lat": 24.224166790138906,
        "lon": -101.95086198754514,
        "alt_km": 804.9260692821317,
        "timestamp": "2025-12-24T03:53:29.936442+00:00",
        "meta_object_name": "FENGYUN 1C DEB",
        "meta_object_id": "1999-025EFM",
        "meta_epoch": "2025-12-23T03:50:18.821184",
        "meta_mean_motion": 14.41218056,
        "meta_eccentricity": 0.0095013,
        "meta_inclination": 99.0335,
        "meta_ra_of_asc_node": 72.8858,
        "meta_arg_of_pericenter": 297.6079,
        "meta_mean_anomaly": 61.5485,
        "meta_ephemeris_type": 0,
        "meta_classification_type": "U",
        "meta_norad_cat_id": 37077,
        "meta_element_set_no": 999,
        "meta_rev_at_epoch": 85105,
        "meta_bstar": 0.00033215123,
        "meta_mean_motion_dot": 1.079e-05,
        "meta_mean_motion_ddot": 0,
        "tle_line1": "1 37077U 99025EFM 25357.15994006  .00001079  00000+0  33215-3 0  9998",
        "tle_line2": "2 37077  99.0335  72.8858 0095013 297.6079  61.5485 14.41218056851051"
      },
      "geometry": {
        "type": "Point",
        "coordinates": [
          -101.95086198754514,
          24.224166790138906
        ]
      }
    },
    {
      "type": "Feature",
      "properties": {
        "norad_id": 37079,
        "name": "FENGYUN 1C DEB",
        "group": "fengyun-1c-debris",
        "lat": 57.15315892672598,
        "lon": 119.91897534472501,
        "alt_km": 681.9124806939308,
        "timestamp": "2025-12-24T03:53:29.936454+00:00",
        "meta_object_name": "FENGYUN 1C DEB",
        "meta_object_id": "1999-025EFP",
        "meta_epoch": "2025-12-18T02:53:46.135104",
        "meta_mean_motion": 14.6004098,
        "meta_eccentricity": 0.00113024,
        "meta_inclination": 98.8569,
        "meta_ra_of_asc_node": 127.4448,
        "meta_arg_of_pericenter": 127.1954,
        "meta_mean_anomaly": 233.0277,
        "meta_ephemeris_type": 0,
        "meta_classification_type": "U",
        "meta_norad_cat_id": 37079,
        "meta_element_set_no": 999,
        "meta_rev_at_epoch": 64694,
        "meta_bstar": 0.0027811281,
        "meta_mean_motion_dot": 0.00013341,
        "meta_mean_motion_ddot": 0,
        "tle_line1": "1 37079U 99025EFP 25352.12067286  .00013341  00000+0  27811-2 0  9992",
        "tle_line2": "2 37079  98.8569 127.4448 0011302 127.1954 233.0277 14.60040980646944"
      },
      "geometry": {
        "type": "Point",
        "coordinates": [
          119.91897534472501,
          57.15315892672598
        ]
      }
    },
    {
      "type": "Feature",
      "properties": {
        "norad_id": 37081,
        "name": "FENGYUN 1C DEB",
        "group": "fengyun-1c-debris",
        "lat": 22.872301109029646,
        "lon": -26.13461981834341,
        "alt_km": 1023.812191168262,
        "timestamp": "2025-12-24T03:53:29.936465+00:00",
        "meta_object_name": "FENGYUN 1C DEB",
        "meta_object_id": "1999-025EFR",
        "meta_epoch": "2025-12-21T15:41:59.866368",
        "meta_mean_motion": 14.13992417,
        "meta_eccentricity": 0.0266704,
        "meta_inclination": 98.7038,
        "meta_ra_of_asc_node": 147.7147,
        "meta_arg_of_pericenter": 322.5085,
        "meta_mean_anomaly": 35.7745,
        "meta_ephemeris_type": 0,
        "meta_classification_type": "U",
        "meta_norad_cat_id": 37081,
        "meta_element_set_no": 999,
        "meta_rev_at_epoch": 58700,
        "meta_bstar": 0.0028473183,
        "meta_mean_motion_dot": 7.567e-05,
        "meta_mean_motion_ddot": 0,
        "tle_line1": "1 37081U 99025EFR 25355.65416512  .00007567  00000+0  28473-2 0  9994",
        "tle_line2": "2 37081  98.7038 147.7147 0266704 322.5085  35.7745 14.13992417587009"
      },
      "geometry": {
        "type": "Point",
        "coordinates": [
          -26.13461981834341,
          22.872301109029646
        ]
      }
    },
    {
      "type": "Feature",
      "properties": {
        "norad_id": 37400,
        "name": "FENGYUN 1C DEB",
        "group": "fengyun-1c-debris",
        "lat": 29.331900401134,
        "lon": -170.48478295064984,
        "alt_km": 942.3223044223732,
        "timestamp": "2025-12-24T03:53:29.936475+00:00",
        "meta_object_name": "FENGYUN 1C DEB",
        "meta_object_id": "1999-025EFS",
        "meta_epoch": "2025-12-21T07:04:10.924896",
        "meta_mean_motion": 13.63653969,
        "meta_eccentricity": 0.04017941,
        "meta_inclination": 98.8374,
        "meta_ra_of_asc_node": 191.9168,
        "meta_arg_of_pericenter": 114.2366,
        "meta_mean_anomaly": 250.1307,
        "meta_ephemeris_type": 0,
        "meta_classification_type": "U",
        "meta_norad_cat_id": 37400,
        "meta_element_set_no": 999,
        "meta_rev_at_epoch": 80310,
        "meta_bstar": 0.00033721294,
        "meta_mean_motion_dot": 4.26e-06,
        "meta_mean_motion_ddot": 0,
        "tle_line1": "1 37400U 99025EFS 25355.29457089  .00000426  00000+0  33721-3 0  9993",
        "tle_line2": "2 37400  98.8374 191.9168 0401794 114.2366 250.1307 13.63653969803109"
      },
      "geometry": {
        "type": "Point",
        "coordinates": [
          -170.48478295064984,
          29.331900401134
        ]
      }
    },
    {
      "type": "Feature",
      "properties": {
        "norad_id": 37404,
        "name": "FENGYUN 1C DEB",
        "group": "fengyun-1c-debris",
        "lat": 71.4819441577909,
        "lon": -25.650226673278507,
        "alt_km": 760.7991579172894,
        "timestamp": "2025-12-24T03:53:29.936487+00:00",
        "meta_object_name": "FENGYUN 1C DEB",
        "meta_object_id": "1999-025EFW",
        "meta_epoch": "2025-12-22T06:21:11.904768",
        "meta_mean_motion": 14.31671583,
        "meta_eccentricity": 0.00448603,
        "meta_inclination": 98.4521,
        "meta_ra_of_asc_node": 358.8573,
        "meta_arg_of_pericenter": 134.3653,
        "meta_mean_anomaly": 245.751,
        "meta_ephemeris_type": 0,
        "meta_classification_type": "U",
        "meta_norad_cat_id": 37404,
        "meta_element_set_no": 999,
        "meta_rev_at_epoch": 82877,
        "meta_bstar": 0.00061046451,
        "meta_mean_motion_dot": 1.603e-05,
        "meta_mean_motion_ddot": 0,
        "tle_line1": "1 37404U 99025EFW 25356.26472112  .00001603  00000+0  61046-3 0  9998",
        "tle_line2": "2 37404  98.4521 358.8573 0044860 134.3653 245.7510 14.31671583828770"
      },
      "geometry": {
        "type": "Point",
        "coordinates": [
          -25.650226673278507,
          71.4819441577909
        ]
      }
    },
    {
      "type": "Feature",
      "properties": {
        "norad_id": 37406,
        "name": "FENGYUN 1C DEB",
        "group": "fengyun-1c-debris",
        "lat": -46.74420310658465,
        "lon": -121.41025537185872,
        "alt_km": 862.6750677498785,
        "timestamp": "2025-12-24T03:53:29.936500+00:00",
        "meta_object_name": "FENGYUN 1C DEB",
        "meta_object_id": "1999-025EFY",
        "meta_epoch": "2025-12-22T21:25:18.983712",
        "meta_mean_motion": 14.04322648,
        "meta_eccentricity": 0.0149002,
        "meta_inclination": 98.4422,
        "meta_ra_of_asc_node": 228.3273,
        "meta_arg_of_pericenter": 237.6603,
        "meta_mean_anomaly": 138.5268,
        "meta_ephemeris_type": 0,
        "meta_classification_type": "U",
        "meta_norad_cat_id": 37406,
        "meta_element_set_no": 999,
        "meta_rev_at_epoch": 63375,
        "meta_bstar": 0.00087973,
        "meta_mean_motion_dot": 1.504e-05,
        "meta_mean_motion_ddot": 0,
        "tle_line1": "1 37406U 99025EFY 25356.89258083  .00001504  00000+0  87973-3 0  9995",
        "tle_line2": "2 37406  98.4422 228.3273 0149002 237.6603 138.5268 14.04322648633752"
      },
      "geometry": {
        "type": "Point",
        "coordinates": [
          -121.41025537185872,
          -46.74420310658465
        ]
      }
    }
  ]
}